OBJECT_NAME,OBJECT_ID,EPOCH,MEAN_MOTION,ECCENTRICITY,INCLINATION,RA_OF_ASC_NODE,ARG_OF_PERICENTER,MEAN_ANOMALY,EPHEMERIS_TYPE,CLASSIFICATION_TYPE,NORAD_CAT_ID,ELEMENT_SET_NO,REV_AT_EPOCH,BSTAR,MEAN_MOTION_DOT,MEAN_MOTION_DDOT
JILIN-1 03,2017-002B,2026-07-10T20:15:09.040032,15.42156837,.0008022,97.1950,198.6032,90.7513,269.4654,0,U,41914,999,52550,.20438E-3,.8683E-4,0
CARTOSAT-2D,2017-008A,2026-07-10T20:51:59.842368,15.19261858,.000567,97.4099,250.7312,150.1716,209.9843,0,U,41948,999,52117,.64638E-4,.1296E-4,0
CARTOSAT-2E,2017-036C,2026-07-10T19:42:37.086912,15.19233582,.0002797,97.4268,251.2325,204.7610,155.3490,0,U,42767,999,50173,.10611E-3,.2167E-4,0
IRIDIUM 113,2017-039A,2026-07-10T08:00:35.011584,14.34217385,.00021933,86.3990,312.5038,91.1544,268.9903,0,U,42803,999,47450,-.1145524E-5,.17E-6,0
NORSAT 2,2017-042D,2026-07-10T10:20:09.600288,15.22372204,.00085848,97.4049,4.5111,336.6734,23.4112,0,U,42828,999,49127,.32467512E-3,.7433E-4,0
TECHNOSAT,2017-042E,2026-07-10T09:16:19.420032,15.05092056,.0017861,97.4303,348.1655,18.8202,341.3681,0,U,42829,999,49019,.18607478E-3,.2596E-4,0
FLYING LAPTOP,2017-042G,2026-07-10T20:20:48.967872,15.01296106,.0019871,97.4787,346.4877,46.2666,314.0200,0,U,42831,999,49000,.21263E-3,.2688E-4,0
WNISAT 1R,2017-042L,2026-07-10T17:52:41.264256,15.01853313,.0011399,97.4825,347.0262,78.7023,281.5482,0,U,42835,999,49004,.67183E-4,.82E-5,0
LEMUR-2-GREENBERG,2017-042N,2026-07-09T11:53:19.376160,15.32031511,.00071356,97.3831,11.0293,283.6729,76.3718,0,U,42837,999,49180,.3749711E-3,.11532E-3,0
LEMUR-2-FURIAUS,2017-042R,2026-07-10T17:54:39.576960,15.31036825,.000636,97.3778,10.1778,347.2297,12.8782,0,U,42840,999,49181,.4049E-3,.12077E-3,0
CORVUS BC2,2017-042X,2026-07-10T07:28:21.992160,15.06442373,.00138712,97.4090,351.7667,39.1681,321.0548,0,U,42846,999,49054,.14632989E-3,.2103E-4,0
CORVUS BC1,2017-042Y,2026-07-10T16:50:45.602880,15.06607650,.0012081,97.4119,352.9716,16.3956,343.7660,0,U,42847,999,49063,.1141E-3,.1633E-4,0
VRSS-2,2017-060A,2026-07-10T19:56:26.126880,14.81232040,.0017856,97.6508,228.4917,27.4254,332.7898,0,U,42954,999,47195,.81989E-5,.14E-6,0
MOHAMMED VI-A,2017-070A,2026-07-10T20:28:08.608224,14.77099572,.0001197,97.9551,263.8573,91.4130,268.7218,0,U,43005,999,46747,.53293E-4,.326E-5,0
FENGYUN 3D,2017-072A,2026-07-10T19:50:39.733728,14.19744108,.0001745,99.0139,166.6774,23.8215,336.3041,0,U,43010,999,44834,.12697E-4,-.19E-6,0
NOAA 20 (JPSS-1),2017-073A,2026-07-10T19:49:00.118848,14.19515914,.0001215,98.7774,131.0788,128.8184,231.3101,0,U,43013,999,44782,.21576E-4,.1E-7,0
MAKERSAT 0,2017-073D,2026-07-08T17:28:33.025728,15.32839065,.01050669,97.4597,72.4218,195.3224,164.4830,0,U,43016,999,46976,.36375063E-3,.13683E-3,0
RADFXSAT (FOX-1B),2017-073E,2026-07-10T10:09:49.968000,15.13024016,.01480142,97.4686,58.1651,248.1091,110.4347,0,U,43017,999,46890,.20168401E-3,.4588E-4,0
JILIN-1 04,2017-074A,2026-07-10T19:48:51.782976,15.43054991,.0005224,97.4868,302.0798,111.6529,248.5275,0,U,43022,999,47791,.19827E-3,.8667E-4,0
JILIN-1 05,2017-074B,2026-07-10T19:10:53.046912,15.34241819,.0006239,97.4874,298.2797,136.8612,223.3120,0,U,43023,999,47762,.15952E-3,.5208E-4,0
JILIN-1 06,2017-074C,2026-07-10T20:08:56.980896,15.33964448,.000779,97.4801,295.2988,147.1366,213.0362,0,U,43024,999,47746,.11214E-3,.3605E-4,0
IRIDIUM 116,2017-083C,2026-07-10T17:26:50.590752,14.34220153,.0002404,86.3983,312.1606,99.2562,260.8905,0,U,43072,999,44754,.4542E-4,.147E-5,0
IRIDIUM 130,2017-083D,2026-07-10T06:38:23.302176,14.34216740,.00021648,86.3991,312.6264,101.1268,259.0172,0,U,43073,999,44742,.4712155E-4,.152E-5,0
LKW-2,2017-084A,2026-07-10T21:20:46.697568,15.26653590,.0003404,97.1192,230.5794,126.6651,233.4901,0,U,43080,999,47530,.16316E-3,.421E-4,0
SUPERVIEW-1 03,2018-002A,2026-07-10T21:18:03.640896,15.40110591,.0047168,97.3132,276.7004,96.1861,264.4762,0,U,43099,999,47201,.29376E-3,.12151E-3,0
CARTOSAT-2F,2018-004A,2026-07-10T20:29:33.702720,15.19245970,.0002344,97.4779,251.2559,144.3538,215.7853,0,U,43111,999,47092,.61358E-4,.1225E-4,0
LKW-3,2018-006A,2026-07-10T20:10:09.556032,15.35700636,.000258,97.6630,353.3493,196.3128,163.8032,0,U,43146,999,47234,.35799E-3,.12351E-3,0
ASNARO-2,2018-007A,2026-07-10T20:21:04.885344,15.22407301,.000199,97.3973,198.4051,93.8597,266.2867,0,U,43152,999,47101,.24736E-3,.5647E-4,0
